{
  "norad_id": 56226,
  "name": "OUTPOST MISSION 1",
  "history": [
    {
      "epoch": "2026-03-28T21:04:03.743040Z",
      "apogee_km": 350.26210702209937,
      "perigee_km": 344.8075871541105,
      "latitude_deg": -3.955437770799988e-05,
      "longitude_deg": 100.46135337111922,
      "height_km": 353.2098315313838,
      "semi_major_axis_km": 6725.671847088104,
      "eccentricity": 0.0004055,
      "inclination_deg": 97.5975,
      "raan_deg": 242.7689,
      "arg_perigee_deg": 202.7669,
      "mean_anomaly_deg": 157.3415,
      "mean_motion_rev_day": 15.73980151
    }
  ]
}